YAM-7                   
1 60504U 24149AN  26068.71799904  .00009009  00000+0  30984-3 0  9997
2 60504  97.3828 149.4631 0001973 296.5121  63.5918 15.30304554 86835
STARLINK-33820          
1 63584U 25076R   26068.08866065  .00027992  00000+0  10225-2 0  9997
2 63584  42.9942 324.6421 0001772 222.3018 137.7697 15.27591550 51742
